SatCatId,ObjectName,LaunchYear,OrbitalPeriod,LaunchMass,StatusCode,Inclination,Status,UcsData,OrbitClassEstimated,LaunchSiteCountry,Owner,UseType,Purpose,LaunchVehicleClass,TLE1,TLE2,MeanMotion,Eccentricity,OrbitClass
55921,STARLINK-5861,2023,96.11,-1.0,+,70.0,Active,0,LEO,USA,USA,Unknown,Unknown,Falcon,1 55921U 23037H   23276.61661737 -.00000765  00000+0 -56343-4 0  9998,2 55921  70.0011  23.5591 0002775 270.6066  89.4775 14.98334069 30466,14.98334069,0.0002775,LEO
55922,STARLINK-5863,2023,96.11,-1.0,+,70.0,Active,0,LEO,USA,USA,Unknown,Unknown,Falcon,1 55922U 23037J   23276.55403306 -.00001201  00000+0 -92844-4 0  9990,2 55922  70.0008  23.7422 0003084 270.5085  89.5720 14.98334647 30454,14.98334647,0.0003084,LEO
55923,STARLINK-5854,2023,96.11,-1.0,+,70.0,Active,0,LEO,USA,USA,Unknown,Unknown,Falcon,1 55923U 23037K   23276.55820650 -.00002430  00000+0 -19582-3 0  9998,2 55923  70.0005  23.7571 0003077 267.9501  92.1306 14.98348516 30452,14.98348516,0.0003077,LEO
55924,STARLINK-5849,2023,96.11,-1.0,+,70.0,Active,0,LEO,USA,USA,Unknown,Unknown,Falcon,1 55924U 23037L   23276.56633397 -.00001241  00000+0 -96211-4 0  9994,2 55924  70.0026   3.9039 0002947 271.7690  88.3131 14.98332920 30941,14.9833292,0.0002947,LEO
55925,STARLINK-5922,2023,96.11,-1.0,+,70.0,Active,0,LEO,USA,USA,Unknown,Unknown,Falcon,1 55925U 23037M   23276.61244120 -.00001514  00000+0 -11909-3 0  9996,2 55925  70.0006  23.5429 0003020 267.4359  92.6454 14.98342190 30461,14.9834219,0.000302,LEO
55926,STARLINK-5921,2023,96.11,-1.0,+,70.0,Active,0,LEO,USA,USA,Unknown,Unknown,Falcon,1 55926U 23037N   23276.55798249 -.00000468  00000+0 -31420-4 0  9994,2 55926  70.0011   3.8745 0003085 271.5379  88.5427 14.98332512 30943,14.98332512,0.0003085,LEO
55927,STARLINK-5919,2023,96.11,-1.0,+,70.0,Active,0,LEO,USA,USA,Unknown,Unknown,Falcon,1 55927U 23037P   23276.60827366 -.00000634  00000+0 -45353-4 0  9999,2 55927  70.0010  23.5297 0002613 267.1360  92.9500 14.98334412 30460,14.98334412,0.0002613,LEO
55928,STARLINK-5930,2023,96.11,-1.0,+,70.0,Active,0,LEO,USA,USA,Unknown,Unknown,Falcon,1 55928U 23037Q   23276.59991776 -.00000520  00000+0 -35768-4 0  9998,2 55928  70.0006  23.5001 0002877 272.0879  87.9951 14.98339187 30469,14.98339187,0.0002877,LEO
55929,STARLINK-5898,2023,96.11,-1.0,+,70.0,Active,0,LEO,USA,USA,Unknown,Unknown,Falcon,1 55929U 23037R   23276.60409412 -.00000144  00000+0 -42552-5 0  9994,2 55929  70.0008  23.5138 0002840 269.5698  90.5136 14.98332715 30468,14.98332715,0.000284,LEO
55930,STARLINK-5896,2023,96.11,-1.0,+,70.0,Active,0,LEO,USA,USA,Unknown,Unknown,Falcon,1 55930U 23037S   23276.55380775 -.00000905  00000+0 -68071-4 0  9998,2 55930  70.0009   3.8590 0003037 270.3677  89.7134 14.98334273 30942,14.98334273,0.0003037,LEO
55931,STARLINK-5897,2023,96.11,-1.0,+,70.0,Active,0,LEO,USA,USA,Unknown,Unknown,Falcon,1 55931U 23037T   23276.59574479 -.00000767  00000+0 -56492-4 0  9999,2 55931  70.0002  23.4863 0003073 272.0497  88.0310 14.98336576 30469,14.98336576,0.0003073,LEO
55932,STARLINK-5848,2023,95.52,-1.0,+,70.0,Active,0,LEO,USA,USA,Unknown,Unknown,Falcon,1 55932U 23037U   23276.58334491 -.00894210  00000+0 -63707-1 0  9995,2 55932  69.9995 343.5814 0003323 280.6507 162.8758 15.07341327  5825,15.07341327,0.0003323,LEO
55933,STARLINK-5852,2023,96.05,-1.0,+,70.0,Active,0,LEO,USA,USA,Unknown,Unknown,Falcon,1 55933U 23037V   23276.55548993 -.00000872  00000+0 -63897-4 0  9993,2 55933  70.0015   3.8674 0002776 263.7417  96.3426 14.99149175 30946,14.99149175,0.0002776,LEO
55934,STARLINK-5927,2023,96.11,-1.0,+,70.0,Active,0,LEO,USA,USA,Unknown,Unknown,Falcon,1 55934U 23037W   23276.59567812  .00000161  00000+0  21249-4 0  9993,2 55934  70.0010   3.6012 0003161 272.7149  87.3648 14.98342772 30951,14.98342772,0.0003161,LEO
55935,STARLINK-5920,2023,96.11,-1.0,+,70.0,Active,0,LEO,USA,USA,Unknown,Unknown,Falcon,1 55935U 23037X   23276.61639008 -.00000558  00000+0 -38943-4 0  9995,2 55935  70.0010   3.6761 0002976 270.3940  89.6878 14.98338505 30958,14.98338505,0.0002976,LEO
55936,STARLINK-5882,2023,95.54,-1.0,+,70.0,Active,0,LEO,USA,USA,Unknown,Unknown,Falcon,1 55936U 23037Y   23276.58334491 -.00894408  00000+0 -64141-1 0  9991,2 55936  69.9998 343.6044 0003336 281.6050 141.6381 15.07100594  6148,15.07100594,0.0003336,LEO
55937,STARLINK-5913,2023,96.11,-1.0,+,70.0,Active,0,LEO,USA,USA,Unknown,Unknown,Falcon,1 55937U 23037Z   23276.61221508 -.00000169  00000+0 -63587-5 0  9990,2 55937  70.0011   3.6613 0002943 270.4045  89.6777 14.98337092 30956,14.98337092,0.0002943,LEO
55938,STARLINK-5909,2023,96.11,-1.0,+,70.0,Active,0,LEO,USA,USA,Unknown,Unknown,Falcon,1 55938U 23037AA  23276.60803852  .00000215  00000+0  25841-4 0  9998,2 55938  70.0014   3.6457 0002944 270.1527  89.9294 14.98339280 30957,14.9833928,0.0002944,LEO
55939,STARLINK-5918,2023,96.11,-1.0,+,70.0,Active,0,LEO,USA,USA,Unknown,Unknown,Falcon,1 55939U 23037AB  23276.59969348 -.00001277  00000+0 -99185-4 0  9993,2 55939  70.0014   3.6153 0003000 274.6862  85.3954 14.98342895 30955,14.98342895,0.0003,LEO
55940,STARLINK-5864,2023,96.11,-1.0,+,70.0,Active,0,LEO,USA,USA,Unknown,Unknown,Falcon,1 55940U 23037AC  23276.60386235  .00000006  00000+0  82700-5 0  9998,2 55940  70.0008   3.6304 0003200 272.9591  87.1201 14.98342872 30950,14.98342872,0.00032,LEO
55941,STARLINK-5914,2023,96.11,-1.0,+,70.0,Active,0,LEO,USA,USA,Unknown,Unknown,Falcon,1 55941U 23037AD  23276.56215603 -.00000853  00000+0 -63710-4 0  9995,2 55941  70.0018   3.8892 0002829 268.9543  91.1292 14.98333191 30942,14.98333191,0.0002829,LEO
55942,STARLINK-5917,2023,96.11,-1.0,+,70.0,Active,0,LEO,USA,USA,Unknown,Unknown,Falcon,1 55942U 23037AE  23276.57882227 -.00000753  00000+0 -55294-4 0  9996,2 55942  70.0019   3.5437 0002781 261.3851  98.6993 14.98337856 30955,14.98337856,0.0002781,LEO
55943,STARLINK-5932,2023,96.11,-1.0,+,70.0,Active,0,LEO,USA,USA,Unknown,Unknown,Falcon,1 55943U 23037AF  23276.58717053  .00000013  00000+0  88463-5 0  9994,2 55943  70.0010   3.5714 0003181 274.0655  86.0140 14.98335493 30953,14.98335493,0.0003181,LEO
55944,STARLINK-5926,2023,96.11,-1.0,+,70.0,Active,0,LEO,USA,USA,Unknown,Unknown,Falcon,1 55944U 23037AG  23276.58299715 -.00000207  00000+0 -95841-5 0  9990,2 55944  70.0017   3.5580 0002910 273.0606  87.0220 14.98336003 30954,14.98336003,0.000291,LEO
55945,STARLINK-5925,2023,96.11,-1.0,+,70.0,Active,0,LEO,USA,USA,Unknown,Unknown,Falcon,1 55945U 23037AH  23276.59554604 -.00002883  00000+0 -23401-3 0  9996,2 55945  70.0013   3.6003 0002874 269.7238  90.3592 14.98314902 30957,14.98314902,0.0002874,LEO
55946,STARLINK-5857,2023,96.11,-1.0,+,70.0,Active,0,LEO,USA,USA,Unknown,Unknown,Falcon,1 55946U 23037AJ  23276.59134166 -.00000121  00000+0 -23502-5 0  9991,2 55946  70.0011   3.5853 0003036 275.4990  84.5822 14.98340632 30958,14.98340632,0.0003036,LEO
55947,STARLINK-5851,2023,96.11,-1.0,+,70.0,Active,0,LEO,USA,USA,Unknown,Unknown,Falcon,1 55947U 23037AK  23276.57481670 -.00000322  00000+0 -19221-4 0  9990,2 55947  70.0020   3.5297 0002741 264.9572  95.1274 14.98332202 30955,14.98332202,0.0002741,LEO
55948,STARLINK-5900,2023,95.73,-1.0,+,70.0,Active,0,LEO,USA,USA,Unknown,Unknown,Falcon,1 55948U 23037AL  23276.58334491 -.00892968  00000+0 -69476-1 0  9999,2 55948  70.0006 343.9018 0003203 281.7182 236.1528 15.04077610 31788,15.0407761,0.0003203,LEO
55949,STARLINK-5899,2023,95.76,-1.0,+,70.0,Active,0,LEO,USA,USA,Unknown,Unknown,Falcon,1 55949U 23037AM  23276.58334491 -.00893104  00000+0 -70277-1 0  9994,2 55949  70.0003 343.9455 0003243 280.8648 198.5424 15.03655013  5877,15.03655013,0.0003243,LEO
55950,STARLINK-5911,2023,95.7,-1.0,+,70.0,Active,0,LEO,USA,USA,Unknown,Unknown,Falcon,1 55950U 23037AN  23276.58334491 -.00893368  00000+0 -68769-1 0  9991,2 55950  70.0003 343.8606 0003209 281.1757 272.7990 15.04477039  5877,15.04477039,0.0003209,LEO
55951,STARLINK-5908,2023,96.11,-1.0,+,70.0,Active,0,LEO,USA,USA,Unknown,Unknown,Falcon,1 55951U 23037AP  23276.57464993 -.00000530  00000+0 -36629-4 0  9996,2 55951  70.0013   3.5282 0002819 265.7732  94.3105 14.98335528 30957,14.98335528,0.0002819,LEO
55952,STARLINK-5893,2023,95.74,-1.0,+,70.0,Active,0,LEO,USA,USA,Unknown,Unknown,Falcon,1 55952U 23037AQ  23276.58334491 -.00892316  00000+0 -69879-1 0  9998,2 55952  70.0005 343.9268 0003188 279.4560 216.3256 15.03832246  5608,15.03832246,0.0003188,LEO
55953,STARLINK-5889,2023,95.77,-1.0,+,70.0,Active,0,LEO,USA,USA,Unknown,Unknown,Falcon,1 55953U 23037AR  23276.58334491 -.00892751  00000+0 -70724-1 0  9993,2 55953  70.0000 343.9713 0003265 281.3115 175.0999 15.03401568  5988,15.03401568,0.0003265,LEO
55954,STARLINK-5892,2023,95.61,-1.0,+,70.0,Active,0,LEO,USA,USA,Unknown,Unknown,Falcon,1 55954U 23037AS  23276.58334491 -.00896045  00000+0 -66267-1 0  9991,2 55954  69.9999 343.7119 0003287 275.1218  51.0626 15.05971547  6049,15.05971547,0.0003287,LEO
55955,STARLINK-5878,2023,95.67,-1.0,+,70.0,Active,0,LEO,USA,USA,Unknown,Unknown,Falcon,1 55955U 23037AT  23276.58334491 -.00893013  00000+0 -67725-1 0  9994,2 55955  70.0001 343.8065 0003157 278.0803 324.8818 15.05030588  6142,15.05030588,0.0003157,LEO
55956,STARLINK-5883,2023,95.58,-1.0,+,70.0,Active,0,LEO,USA,USA,Unknown,Unknown,Falcon,1 55956U 23037AU  23276.58334491 -.00896714  00000+0 -65482-1 0  9994,2 55956  70.0001 343.6669 0003290 269.6985  97.0228 15.06441226  6146,15.06441226,0.000329,LEO
55957,STARLINK-5884,2023,95.68,-1.0,+,70.0,Active,0,LEO,USA,USA,Unknown,Unknown,Falcon,1 55957U 23037AV  23276.58334491 -.00890372  00000+0 -67972-1 0  9995,2 55957  70.0007 343.8308 0003120 277.5972 303.0312 15.04776958  6045,15.04776958,0.000312,LEO
55958,STARLINK-5928,2023,95.66,-1.0,+,70.0,Active,0,LEO,USA,USA,Unknown,Unknown,Falcon,1 55958U 23037AW  23276.58334491 -.00892652  00000+0 -67580-1 0  9994,2 55958  70.0003 343.7984 0003180 278.6030 330.5939 15.05093856  5874,15.05093856,0.000318,LEO
